{
  "type": "FeatureCollection",
  "features": [
    {
      "type": "Feature",
      "properties": {
        "norad_id": 66594,
        "name": "STARLINK-36032",
        "group": "last-30-days",
        "lat": -29.09592857906173,
        "lon": 60.10745615669441,
        "alt_km": 416.66468322030596,
        "timestamp": "2025-12-10T21:43:20.862689+00:00",
        "meta_object_name": "STARLINK-36032",
        "meta_object_id": "2025-270G",
        "meta_epoch": "2025-12-10T14:00:03.000384",
        "meta_mean_motion": 15.50692925,
        "meta_eccentricity": 0.0001946,
        "meta_inclination": 42.9996,
        "meta_ra_of_asc_node": 205.3197,
        "meta_arg_of_pericenter": 256.3006,
        "meta_mean_anomaly": 331.0052,
        "meta_ephemeris_type": 0,
        "meta_classification_type": "U",
        "meta_norad_cat_id": 66594,
        "meta_element_set_no": 999,
        "meta_rev_at_epoch": 379,
        "meta_bstar": -0.0039978099,
        "meta_mean_motion_dot": -0.0022909,
        "meta_mean_motion_ddot": 0,
        "tle_line1": "1 66594U 25270G   25344.58336806 -.00229090  00000+0 -39978-2 0  9994",
        "tle_line2": "2 66594  42.9996 205.3197 0001946 256.3006 331.0052 15.50692925  3797"
      },
      "geometry": {
        "type": "Point",
        "coordinates": [
          60.10745615669441,
          -29.09592857906173
        ]
      }
    },
    {
      "type": "Feature",
      "properties": {
        "norad_id": 66595,
        "name": "STARLINK-35711",
        "group": "last-30-days",
        "lat": -30.125197786316225,
        "lon": 61.9455322104537,
        "alt_km": 416.9374450708874,
        "timestamp": "2025-12-10T21:43:20.862699+00:00",
        "meta_object_name": "STARLINK-35711",
        "meta_object_id": "2025-270H",
        "meta_epoch": "2025-12-10T14:00:03.000384",
        "meta_mean_motion": 15.50625031,
        "meta_eccentricity": 0.00015644,
        "meta_inclination": 42.9998,
        "meta_ra_of_asc_node": 205.3135,
        "meta_arg_of_pericenter": 233.1868,
        "meta_mean_anomaly": 356.0855,
        "meta_ephemeris_type": 0,
        "meta_classification_type": "U",
        "meta_norad_cat_id": 66595,
        "meta_element_set_no": 999,
        "meta_rev_at_epoch": 416,
        "meta_bstar": -0.0035604913,
        "meta_mean_motion_dot": -0.00204203,
        "meta_mean_motion_ddot": 0,
        "tle_line1": "1 66595U 25270H   25344.58336806 -.00204203  00000+0 -35605-2 0  9997",
        "tle_line2": "2 66595  42.9998 205.3135 0001564 233.1868 356.0855 15.50625031  4161"
      },
      "geometry": {
        "type": "Point",
        "coordinates": [
          61.9455322104537,
          -30.125197786316225
        ]
      }
    },
    {
      "type": "Feature",
      "properties": {
        "norad_id": 66596,
        "name": "STARLINK-35811",
        "group": "last-30-days",
        "lat": -31.13800582170517,
        "lon": 63.843626585264694,
        "alt_km": 416.6807190520467,
        "timestamp": "2025-12-10T21:43:20.862709+00:00",
        "meta_object_name": "STARLINK-35811",
        "meta_object_id": "2025-270J",
        "meta_epoch": "2025-12-10T14:00:03.000384",
        "meta_mean_motion": 15.50675191,
        "meta_eccentricity": 0.00020853,
        "meta_inclination": 42.9996,
        "meta_ra_of_asc_node": 205.3097,
        "meta_arg_of_pericenter": 257.1192,
        "meta_mean_anomaly": 334.0312,
        "meta_ephemeris_type": 0,
        "meta_classification_type": "U",
        "meta_norad_cat_id": 66596,
        "meta_element_set_no": 999,
        "meta_rev_at_epoch": 416,
        "meta_bstar": -0.0035520917,
        "meta_mean_motion_dot": -0.00204105,
        "meta_mean_motion_ddot": 0,
        "tle_line1": "1 66596U 25270J   25344.58336806 -.00204105  00000+0 -35521-2 0  9996",
        "tle_line2": "2 66596  42.9996 205.3097 0002085 257.1192 334.0312 15.50675191  4168"
      },
      "geometry": {
        "type": "Point",
        "coordinates": [
          63.843626585264694,
          -31.13800582170517
        ]
      }
    },
    {
      "type": "Feature",
      "properties": {
        "norad_id": 66597,
        "name": "STARLINK-35820",
        "group": "last-30-days",
        "lat": -32.11869268377328,
        "lon": 65.77343354539744,
        "alt_km": 416.83974496460814,
        "timestamp": "2025-12-10T21:43:20.862721+00:00",
        "meta_object_name": "STARLINK-35820",
        "meta_object_id": "2025-270K",
        "meta_epoch": "2025-12-10T14:00:03.000384",
        "meta_mean_motion": 15.5068778,
        "meta_eccentricity": 0.00018185,
        "meta_inclination": 42.9996,
        "meta_ra_of_asc_node": 205.3046,
        "meta_arg_of_pericenter": 253.9445,
        "meta_mean_anomaly": 339.1138,
        "meta_ephemeris_type": 0,
        "meta_classification_type": "U",
        "meta_norad_cat_id": 66597,
        "meta_element_set_no": 999,
        "meta_rev_at_epoch": 416,
        "meta_bstar": -0.0038338803,
        "meta_mean_motion_dot": -0.0021992,
        "meta_mean_motion_ddot": 0,
        "tle_line1": "1 66597U 25270K   25344.58336806 -.00219920  00000+0 -38339-2 0  9998",
        "tle_line2": "2 66597  42.9996 205.3046 0001818 253.9445 339.1138 15.50687780  4160"
      },
      "geometry": {
        "type": "Point",
        "coordinates": [
          65.77343354539744,
          -32.11869268377328
        ]
      }
    },
    {
      "type": "Feature",
      "properties": {
        "norad_id": 66598,
        "name": "STARLINK-35981",
        "group": "last-30-days",
        "lat": -33.06224756857485,
        "lon": 67.72898766477768,
        "alt_km": 416.98667469311476,
        "timestamp": "2025-12-10T21:43:20.862733+00:00",
        "meta_object_name": "STARLINK-35981",
        "meta_object_id": "2025-270L",
        "meta_epoch": "2025-12-10T14:00:03.000384",
        "meta_mean_motion": 15.50668243,
        "meta_eccentricity": 0.00016134,
        "meta_inclination": 42.9998,
        "meta_ra_of_asc_node": 205.2993,
        "meta_arg_of_pericenter": 243.1539,
        "meta_mean_anomaly": 351.824,
        "meta_ephemeris_type": 0,
        "meta_classification_type": "U",
        "meta_norad_cat_id": 66598,
        "meta_element_set_no": 999,
        "meta_rev_at_epoch": 389,
        "meta_bstar": -0.0037031271,
        "meta_mean_motion_dot": -0.00212477,
        "meta_mean_motion_ddot": 0,
        "tle_line1": "1 66598U 25270L   25344.58336806 -.00212477  00000+0 -37031-2 0  9997",
        "tle_line2": "2 66598  42.9998 205.2993 0001613 243.1539 351.8240 15.50668243  3898"
      },
      "geometry": {
        "type": "Point",
        "coordinates": [
          67.72898766477768,
          -33.06224756857485
        ]
      }
    },
    {
      "type": "Feature",
      "properties": {
        "norad_id": 66599,
        "name": "STARLINK-35930",
        "group": "last-30-days",
        "lat": -33.984858748278384,
        "lon": 69.75265228262414,
        "alt_km": 416.99769567089515,
        "timestamp": "2025-12-10T21:43:20.862745+00:00",
        "meta_object_name": "STARLINK-35930",
        "meta_object_id": "2025-270M",
        "meta_epoch": "2025-12-10T14:00:03.000384",
        "meta_mean_motion": 15.50670081,
        "meta_eccentricity": 0.00017905,
        "meta_inclination": 42.9995,
        "meta_ra_of_asc_node": 205.2959,
        "meta_arg_of_pericenter": 260.7063,
        "meta_mean_anomaly": 336.1961,
        "meta_ephemeris_type": 0,
        "meta_classification_type": "U",
        "meta_norad_cat_id": 66599,
        "meta_element_set_no": 999,
        "meta_rev_at_epoch": 405,
        "meta_bstar": -0.0033914994,
        "meta_mean_motion_dot": -0.00195071,
        "meta_mean_motion_ddot": 0,
        "tle_line1": "1 66599U 25270M   25344.58336806 -.00195071  00000+0 -33915-2 0  9995",
        "tle_line2": "2 66599  42.9995 205.2959 0001790 260.7063 336.1961 15.50670081  4059"
      },
      "geometry": {
        "type": "Point",
        "coordinates": [
          69.75265228262414,
          -33.984858748278384
        ]
      }
    },
    {
      "type": "Feature",
      "properties": {
        "norad_id": 66600,
        "name": "STARLINK-35980",
        "group": "last-30-days",
        "lat": -34.872594210067405,
        "lon": 71.8144629605714,
        "alt_km": 416.8693866630492,
        "timestamp": "2025-12-10T21:43:20.862756+00:00",
        "meta_object_name": "STARLINK-35980",
        "meta_object_id": "2025-270N",
        "meta_epoch": "2025-12-10T14:00:03.000384",
        "meta_mean_motion": 15.50695501,
        "meta_eccentricity": 0.00020818,
        "meta_inclination": 42.9999,
        "meta_ra_of_asc_node": 205.2907,
        "meta_arg_of_pericenter": 256.7781,
        "meta_mean_anomaly": 342.0464,
        "meta_ephemeris_type": 0,
        "meta_classification_type": "U",
        "meta_norad_cat_id": 66600,
        "meta_element_set_no": 999,
        "meta_rev_at_epoch": 395,
        "meta_bstar": -0.0046486271,
        "meta_mean_motion_dot": -0.00265152,
        "meta_mean_motion_ddot": 0,
        "tle_line1": "1 66600U 25270N   25344.58336806 -.00265152  00000+0 -46486-2 0  9993",
        "tle_line2": "2 66600  42.9999 205.2907 0002081 256.7781 342.0464 15.50695501  3951"
      },
      "geometry": {
        "type": "Point",
        "coordinates": [
          71.8144629605714,
          -34.872594210067405
        ]
      }
    }
  ]
}